IRIDIUM 156             
1 43576U 18061H   26199.51326775  .00000090  00000+0  25024-4 0  9999
2 43576  86.3937  43.6245 0002108  93.2314 266.9123 14.34218499417860
IRIDIUM 164             
1 43577U 18061J   26199.84308446  .00000052  00000+0  11557-4 0  9995
2 43577  86.3937  43.5275 0002339  88.5103 271.6360 14.34217997417950
IRIDIUM 159             
1 43578U 18061K   26199.81137054  .00000057  00000+0  13436-4 0  9991
2 43578  86.3935  43.4768 0002127  86.2317 273.9122 14.34217919417913
IRIDIUM 180             
1 43922U 19002A   26199.81086752 -.00000005  00000+0 -89634-5 0  9997
2 43922  86.3997 340.3782 0002170  91.3292 268.8152 14.34217667393522
IRIDIUM 176             
1 43923U 19002B   26199.83205692  .00000388  00000+0  57589-4 0  9991
2 43923  86.6117 340.3084 0002343  91.5859 268.5626 14.72251734403900
IRIDIUM 168             
1 43924U 19002C   26199.80452625  .00000058  00000+0  13586-4 0  9992
2 43924  86.3997 340.4587 0002174  90.0267 270.1178 14.34217204393509
IRIDIUM 173             
1 43925U 19002D   26199.86160816  .00000160  00000+0  49926-4 0  9998
2 43925  86.3994 340.3226 0002128  92.5460 267.5979 14.34218324393498
IRIDIUM 169             
1 43926U 19002E   26199.48273905  .00000066  00000+0  15176-4 0  9996
2 43926  86.4236  12.1048 0002097 102.7851 257.3582 14.38605573394722
IRIDIUM 172             
1 43927U 19002F   26199.78549718  .00000096  00000+0  27345-4 0  9992
2 43927  86.3995 340.3625 0002178  91.5985 268.5460 14.34218211393491
IRIDIUM 175             
1 43928U 19002G   26199.74462088  .00000160  00000+0  41264-4 0  9991
2 43928  86.4508 277.3306 0005461 108.6561 251.5233 14.43628294403539
IRIDIUM 171             
1 43929U 19002H   26199.83623788  .00000061  00000+0  14573-4 0  9991
2 43929  86.4006 340.6509 0002280  95.3979 264.7477 14.34217946393490
IRIDIUM 170             
1 43930U 19002J   26199.83822520  .00000388  00000+0  57612-4 0  9991
2 43930  86.6115 340.3079 0002223  88.8775 271.2697 14.72252343403910
IRIDIUM 167             
1 43931U 19002K   26199.82989522  .00000053  00000+0  11879-4 0  9991
2 43931  86.3996 340.3666 0002359  98.1750 261.9713 14.34217909393497
IRIDIUM 181             
1 56726U 23068S   26199.85931693  .00000161  00000+0  41931-4 0  9995
2 56726  86.4475  43.5450 0002386  84.1353 276.0120 14.43308329167005
IRIDIUM 177             
1 56727U 23068T   26199.82801030  .00000523  00000+0  65574-4 0  9995
2 56727  86.1988 313.7702 0002212  97.2282 262.9190 14.80027419171047
IRIDIUM 174             
1 56728U 23068U   26199.82576483  .00000312  00000+0  45575-4 0  9992
2 56728  86.6123 340.4636 0001924  90.8067 269.3371 14.72257147170670
IRIDIUM 178             
1 56729U 23068V   26199.81701515  .00000181  00000+0  20467-4 0  9995
2 56729  86.6524  12.1441 0002331  98.2217 261.9269 14.80023084171041
IRIDIUM 179             
1 56730U 23068W   26199.81167051  .00000122  00000+0  12713-4 0  9998
2 56730  86.6769  21.2150 0002376  93.7882 266.3611 14.80023626171041
