OBJECT_NAME,OBJECT_ID,EPOCH,MEAN_MOTION,ECCENTRICITY,INCLINATION,RA_OF_ASC_NODE,ARG_OF_PERICENTER,MEAN_ANOMALY,EPHEMERIS_TYPE,CLASSIFICATION_TYPE,NORAD_CAT_ID,ELEMENT_SET_NO,REV_AT_EPOCH,BSTAR,MEAN_MOTION_DOT,MEAN_MOTION_DDOT
IRIDIUM 156,2018-061H,2026-07-18T12:19:06.333600,14.34218499,.00021089,86.3937,43.6245,93.2314,266.9123,0,U,43576,999,41786,.25024309E-4,.9E-6,0
IRIDIUM 164,2018-061J,2026-07-18T20:14:02.497344,14.34217997,.0002339,86.3937,43.5275,88.5103,271.6360,0,U,43577,999,41795,.11557E-4,.52E-6,0
IRIDIUM 159,2018-061K,2026-07-18T19:28:22.414656,14.34217919,.0002127,86.3935,43.4768,86.2317,273.9122,0,U,43578,999,41791,.13436E-4,.57E-6,0
IRIDIUM 180,2019-002A,2026-07-18T19:27:38.953728,14.34217667,.000217,86.3997,340.3782,91.3292,268.8152,0,U,43922,999,39352,-.89634E-5,-.5E-7,0
IRIDIUM 176,2019-002B,2026-07-18T19:58:09.717888,14.72251734,.0002343,86.6117,340.3084,91.5859,268.5626,0,U,43923,999,40390,.57589E-4,.388E-5,0
IRIDIUM 168,2019-002C,2026-07-18T19:18:31.068000,14.34217204,.0002174,86.3997,340.4587,90.0267,270.1178,0,U,43924,999,39350,.13586E-4,.58E-6,0
IRIDIUM 173,2019-002D,2026-07-18T20:40:42.945024,14.34218324,.0002128,86.3994,340.3226,92.5460,267.5979,0,U,43925,999,39349,.49926E-4,.16E-5,0
IRIDIUM 169,2019-002E,2026-07-18T11:35:08.653920,14.38605573,.00020977,86.4236,12.1048,102.7851,257.3582,0,U,43926,999,39472,.15176042E-4,.66E-6,0
IRIDIUM 172,2019-002F,2026-07-18T18:51:06.956352,14.34218211,.0002178,86.3995,340.3625,91.5985,268.5460,0,U,43927,999,39349,.27345E-4,.96E-6,0
IRIDIUM 175,2019-002G,2026-07-18T17:52:15.244032,14.43628294,.0005461,86.4508,277.3306,108.6561,251.5233,0,U,43928,999,40353,.41264E-4,.16E-5,0
IRIDIUM 171,2019-002H,2026-07-18T20:04:10.952832,14.34217946,.000228,86.4006,340.6509,95.3979,264.7477,0,U,43929,999,39349,.14573E-4,.61E-6,0
IRIDIUM 170,2019-002J,2026-07-18T20:07:02.657280,14.72252343,.0002223,86.6115,340.3079,88.8775,271.2697,0,U,43930,999,40391,.57612E-4,.388E-5,0
IRIDIUM 167,2019-002K,2026-07-18T19:55:02.947008,14.34217909,.0002359,86.3996,340.3666,98.1750,261.9713,0,U,43931,999,39349,.11879E-4,.53E-6,0
IRIDIUM 181,2023-068S,2026-07-18T20:37:24.982752,14.43308329,.0002386,86.4475,43.5450,84.1353,276.0120,0,U,56726,999,16700,.41931E-4,.161E-5,0
IRIDIUM 177,2023-068T,2026-07-18T19:52:20.089920,14.80027419,.0002212,86.1988,313.7702,97.2282,262.9190,0,U,56727,999,17104,.65574E-4,.523E-5,0
IRIDIUM 174,2023-068U,2026-07-18T19:49:06.081312,14.72257147,.0001924,86.6123,340.4636,90.8067,269.3371,0,U,56728,999,17067,.45575E-4,.312E-5,0
IRIDIUM 178,2023-068V,2026-07-18T19:36:30.108960,14.80023084,.0002331,86.6524,12.1441,98.2217,261.9269,0,U,56729,999,17104,.20467E-4,.181E-5,0
IRIDIUM 179,2023-068W,2026-07-18T19:28:48.332064,14.80023626,.0002376,86.6769,21.2150,93.7882,266.3611,0,U,56730,999,17104,.12713E-4,.122E-5,0
